ONEWEB-0290             
1 49080U 21075F   26068.39835609  .00000072  00000+0  15219-3 0  9990
2 49080  87.9157  25.6623 0002377  88.7761 271.3642 13.17650097220479
ONEWEB-0291             
1 49081U 21075G   26068.83877809 -.00000023  00000+0 -92184-4 0  9993
2 49081  87.9159  25.5832 0002083  71.6162 288.5196 13.17648670220527
ONEWEB-0293             
1 49082U 21075H   26068.86409384  .00000004  00000+0 -23915-4 0  9990
2 49082  87.9150  25.5892 0002005  80.9313 279.2046 13.17649550220552
ONEWEB-0294             
1 49083U 21075J   26068.84099417  .00000091  00000+0  21792-3 0  9996
2 49083  87.9003  10.3750 0002163  80.4854 279.6519 13.12441155221540
ONEWEB-0295             
1 49084U 21075K   26068.86325226  .00000080  00000+0  17244-3 0  9994
2 49084  87.9150  25.5940 0001973  71.0547 289.0798 13.17650239220516
ONEWEB-0296             
1 49085U 21075L   26068.82066453  .00000478  00000+0  12920-2 0  9991
2 49085  87.9007  10.3827 0001997  70.2657 289.8687 13.12443385221549
ONEWEB-0297             
1 49086U 21075M   26068.85115721 -.00000208  00000+0 -61475-3 0  9991
2 49086  87.8994  10.4015 0001811  75.1925 284.9404 13.12441256222157
ONEWEB-0298             
1 49087U 21075N   26068.86759502 -.00000138  00000+0 -38806-3 0  9998
2 49087  87.9151  25.5900 0001684  79.4707 280.6614 13.17649039220548
ONEWEB-0299             
1 49088U 21075P   26068.86914198 -.00000114  00000+0 -32614-3 0  9998
2 49088  87.9164  25.5602 0001816  75.6996 284.4337 13.17648834220521
ONEWEB-0300             
1 49089U 21075Q   26068.84353111  .00000000  00000+0 -36002-4 0  9998
2 49089  87.9005  10.3708 0001454  78.4717 281.6575 13.12442838222172
ONEWEB-0301             
1 49090U 21075R   26068.82742404  .00000462  00000+0  12477-2 0  9994
2 49090  87.9002  10.3751 0001445  84.9200 275.2094 13.12443871221530
ONEWEB-0302             
1 49091U 21075S   26068.81388627  .00000433  00000+0  11674-2 0  9993
2 49091  87.9005  10.3862 0002127  76.4684 283.6682 13.12444144221515
ONEWEB-0304             
1 49092U 21075T   26068.38823064 -.00000007  00000+0 -50905-4 0  9996
2 49092  87.9156  25.6858 0001896  76.0115 284.1228 13.17650159220436
ONEWEB-0305             
1 49093U 21075U   26068.83709999  .00000076  00000+0  16175-3 0  9991
2 49093  87.9160  25.5754 0001842  67.7966 292.3361 13.17648498220520
ONEWEB-0308             
1 49094U 21075V   26068.34968292  .00000301  00000+0  80264-3 0  9992
2 49094  87.9005  10.4711 0001818  80.0451 280.0883 13.12443280221469
ONEWEB-0309             
1 49095U 21075W   26068.84044798 -.00000877  00000+0 -22920-2 0  9998
2 49095  87.9159  25.5891 0002296  79.0833 281.0557 13.17651054220495
ONEWEB-0310             
1 49096U 21075X   26068.82234686  .00000542  00000+0  14706-2 0  9994
2 49096  87.8998  10.4078 0001823  80.2008 279.9326 13.12444641222151
