[{"OBJECT_NAME":"ONEWEB-0290","OBJECT_ID":"2021-075F","EPOCH":"2026-03-09T09:33:37.966176","MEAN_MOTION":13.17650097,"ECCENTRICITY":0.0002377,"INCLINATION":87.9157,"RA_OF_ASC_NODE":25.6623,"ARG_OF_PERICENTER":88.7761,"MEAN_ANOMALY":271.3642,"EPHEMERIS_TYPE":0,"CLASSIFICATION_TYPE":"U","NORAD_CAT_ID":49080,"ELEMENT_SET_NO":999,"REV_AT_EPOCH":22047,"BSTAR":0.00015219,"MEAN_MOTION_DOT":7.2e-7,"MEAN_MOTION_DDOT":0},{"OBJECT_NAME":"ONEWEB-0291","OBJECT_ID":"2021-075G","EPOCH":"2026-03-09T20:07:50.426976","MEAN_MOTION":13.1764867,"ECCENTRICITY":0.0002083,"INCLINATION":87.9159,"RA_OF_ASC_NODE":25.5832,"ARG_OF_PERICENTER":71.6162,"MEAN_ANOMALY":288.5196,"EPHEMERIS_TYPE":0,"CLASSIFICATION_TYPE":"U","NORAD_CAT_ID":49081,"ELEMENT_SET_NO":999,"REV_AT_EPOCH":22052,"BSTAR":-9.2184e-5,"MEAN_MOTION_DOT":-2.3e-7,"MEAN_MOTION_DDOT":0},{"OBJECT_NAME":"ONEWEB-0293","OBJECT_ID":"2021-075H","EPOCH":"2026-03-09T20:44:17.707776","MEAN_MOTION":13.1764955,"ECCENTRICITY":0.0002005,"INCLINATION":87.915,"RA_OF_ASC_NODE":25.5892,"ARG_OF_PERICENTER":80.9313,"MEAN_ANOMALY":279.2046,"EPHEMERIS_TYPE":0,"CLASSIFICATION_TYPE":"U","NORAD_CAT_ID":49082,"ELEMENT_SET_NO":999,"REV_AT_EPOCH":22055,"BSTAR":-2.3915e-5,"MEAN_MOTION_DOT":4.0e-8,"MEAN_MOTION_DDOT":0},{"OBJECT_NAME":"ONEWEB-0294","OBJECT_ID":"2021-075J","EPOCH":"2026-03-09T20:11:01.896288","MEAN_MOTION":13.12441155,"ECCENTRICITY":0.0002163,"INCLINATION":87.9003,"RA_OF_ASC_NODE":10.375,"ARG_OF_PERICENTER":80.4854,"MEAN_ANOMALY":279.6519,"EPHEMERIS_TYPE":0,"CLASSIFICATION_TYPE":"U","NORAD_CAT_ID":49083,"ELEMENT_SET_NO":999,"REV_AT_EPOCH":22154,"BSTAR":0.00021792,"MEAN_MOTION_DOT":9.1e-7,"MEAN_MOTION_DDOT":0},{"OBJECT_NAME":"ONEWEB-0295","OBJECT_ID":"2021-075K","EPOCH":"2026-03-09T20:43:04.995264","MEAN_MOTION":13.17650239,"ECCENTRICITY":0.0001973,"INCLINATION":87.915,"RA_OF_ASC_NODE":25.594,"ARG_OF_PERICENTER":71.0547,"MEAN_ANOMALY":289.0798,"EPHEMERIS_TYPE":0,"CLASSIFICATION_TYPE":"U","NORAD_CAT_ID":49084,"ELEMENT_SET_NO":999,"REV_AT_EPOCH":22051,"BSTAR":0.00017244,"MEAN_MOTION_DOT":8.0e-7,"MEAN_MOTION_DDOT":0},{"OBJECT_NAME":"ONEWEB-0296","OBJECT_ID":"2021-075L","EPOCH":"2026-03-09T19:41:45.415392","MEAN_MOTION":13.12443385,"ECCENTRICITY":0.0001997,"INCLINATION":87.9007,"RA_OF_ASC_NODE":10.3827,"ARG_OF_PERICENTER":70.2657,"MEAN_ANOMALY":289.8687,"EPHEMERIS_TYPE":0,"CLASSIFICATION_TYPE":"U","NORAD_CAT_ID":49085,"ELEMENT_SET_NO":999,"REV_AT_EPOCH":22154,"BSTAR":0.001292,"MEAN_MOTION_DOT":4.78e-6,"MEAN_MOTION_DDOT":0},{"OBJECT_NAME":"ONEWEB-0297","OBJECT_ID":"2021-075M","EPOCH":"2026-03-09T20:25:39.982944","MEAN_MOTION":13.12441256,"ECCENTRICITY":0.0001811,"INCLINATION":87.8994,"RA_OF_ASC_NODE":10.4015,"ARG_OF_PERICENTER":75.1925,"MEAN_ANOMALY":284.9404,"EPHEMERIS_TYPE":0,"CLASSIFICATION_TYPE":"U","NORAD_CAT_ID":49086,"ELEMENT_SET_NO":999,"REV_AT_EPOCH":22215,"BSTAR":-0.00061475,"MEAN_MOTION_DOT":-2.08e-6,"MEAN_MOTION_DDOT":0},{"OBJECT_NAME":"ONEWEB-0298","OBJECT_ID":"2021-075N","EPOCH":"2026-03-09T20:49:20.209728","MEAN_MOTION":13.17649039,"ECCENTRICITY":0.0001684,"INCLINATION":87.9151,"RA_OF_ASC_NODE":25.59,"ARG_OF_PERICENTER":79.4707,"MEAN_ANOMALY":280.6614,"EPHEMERIS_TYPE":0,"CLASSIFICATION_TYPE":"U","NORAD_CAT_ID":49087,"ELEMENT_SET_NO":999,"REV_AT_EPOCH":22054,"BSTAR":-0.00038806,"MEAN_MOTION_DOT":-1.38e-6,"MEAN_MOTION_DDOT":0},{"OBJECT_NAME":"ONEWEB-0299","OBJECT_ID":"2021-075P","EPOCH":"2026-03-09T20:51:33.867072","MEAN_MOTION":13.17648834,"ECCENTRICITY":0.0001816,"INCLINATION":87.9164,"RA_OF_ASC_NODE":25.5602,"ARG_OF_PERICENTER":75.6996,"MEAN_ANOMALY":284.4337,"EPHEMERIS_TYPE":0,"CLASSIFICATION_TYPE":"U","NORAD_CAT_ID":49088,"ELEMENT_SET_NO":999,"REV_AT_EPOCH":22052,"BSTAR":-0.00032614,"MEAN_MOTION_DOT":-1.14e-6,"MEAN_MOTION_DDOT":0},{"OBJECT_NAME":"ONEWEB-0300","OBJECT_ID":"2021-075Q","EPOCH":"2026-03-09T20:14:41.087904","MEAN_MOTION":13.12442838,"ECCENTRICITY":0.0001454,"INCLINATION":87.9005,"RA_OF_ASC_NODE":10.3708,"ARG_OF_PERICENTER":78.4717,"MEAN_ANOMALY":281.6575,"EPHEMERIS_TYPE":0,"CLASSIFICATION_TYPE":"U","NORAD_CAT_ID":49089,"ELEMENT_SET_NO":999,"REV_AT_EPOCH":22217,"BSTAR":-3.6002e-5,"MEAN_MOTION_DOT":0,"MEAN_MOTION_DDOT":0},{"OBJECT_NAME":"ONEWEB-0301","OBJECT_ID":"2021-075R","EPOCH":"2026-03-09T19:51:29.437056","MEAN_MOTION":13.12443871,"ECCENTRICITY":0.0001445,"INCLINATION":87.9002,"RA_OF_ASC_NODE":10.3751,"ARG_OF_PERICENTER":84.92,"MEAN_ANOMALY":275.2094,"EPHEMERIS_TYPE":0,"CLASSIFICATION_TYPE":"U","NORAD_CAT_ID":49090,"ELEMENT_SET_NO":999,"REV_AT_EPOCH":22153,"BSTAR":0.0012477,"MEAN_MOTION_DOT":4.62e-6,"MEAN_MOTION_DDOT":0},{"OBJECT_NAME":"ONEWEB-0302","OBJECT_ID":"2021-075S","EPOCH":"2026-03-09T19:31:59.773728","MEAN_MOTION":13.12444144,"ECCENTRICITY":0.0002127,"INCLINATION":87.9005,"RA_OF_ASC_NODE":10.3862,"ARG_OF_PERICENTER":76.4684,"MEAN_ANOMALY":283.6682,"EPHEMERIS_TYPE":0,"CLASSIFICATION_TYPE":"U","NORAD_CAT_ID":49091,"ELEMENT_SET_NO":999,"REV_AT_EPOCH":22151,"BSTAR":0.0011674,"MEAN_MOTION_DOT":4.33e-6,"MEAN_MOTION_DDOT":0},{"OBJECT_NAME":"ONEWEB-0304","OBJECT_ID":"2021-075T","EPOCH":"2026-03-09T09:19:03.127296","MEAN_MOTION":13.17650159,"ECCENTRICITY":0.00018964,"INCLINATION":87.9156,"RA_OF_ASC_NODE":25.6858,"ARG_OF_PERICENTER":76.0115,"MEAN_ANOMALY":284.1228,"EPHEMERIS_TYPE":0,"CLASSIFICATION_TYPE":"U","NORAD_CAT_ID":49092,"ELEMENT_SET_NO":999,"REV_AT_EPOCH":22043,"BSTAR":-5.0904655e-5,"MEAN_MOTION_DOT":-7.0e-8,"MEAN_MOTION_DDOT":0},{"OBJECT_NAME":"ONEWEB-0305","OBJECT_ID":"2021-075U","EPOCH":"2026-03-09T20:05:25.439136","MEAN_MOTION":13.17648498,"ECCENTRICITY":0.0001842,"INCLINATION":87.916,"RA_OF_ASC_NODE":25.5754,"ARG_OF_PERICENTER":67.7966,"MEAN_ANOMALY":292.3361,"EPHEMERIS_TYPE":0,"CLASSIFICATION_TYPE":"U","NORAD_CAT_ID":49093,"ELEMENT_SET_NO":999,"REV_AT_EPOCH":22052,"BSTAR":0.00016175,"MEAN_MOTION_DOT":7.6e-7,"MEAN_MOTION_DDOT":0},{"OBJECT_NAME":"ONEWEB-0308","OBJECT_ID":"2021-075V","EPOCH":"2026-03-09T08:23:32.604288","MEAN_MOTION":13.1244328,"ECCENTRICITY":0.00018181,"INCLINATION":87.9005,"RA_OF_ASC_NODE":10.4711,"ARG_OF_PERICENTER":80.0451,"MEAN_ANOMALY":280.0883,"EPHEMERIS_TYPE":0,"CLASSIFICATION_TYPE":"U","NORAD_CAT_ID":49094,"ELEMENT_SET_NO":999,"REV_AT_EPOCH":22146,"BSTAR":0.00080264338,"MEAN_MOTION_DOT":3.01e-6,"MEAN_MOTION_DDOT":0},{"OBJECT_NAME":"ONEWEB-0309","OBJECT_ID":"2021-075W","EPOCH":"2026-03-09T20:10:14.705472","MEAN_MOTION":13.17651054,"ECCENTRICITY":0.0002296,"INCLINATION":87.9159,"RA_OF_ASC_NODE":25.5891,"ARG_OF_PERICENTER":79.0833,"MEAN_ANOMALY":281.0557,"EPHEMERIS_TYPE":0,"CLASSIFICATION_TYPE":"U","NORAD_CAT_ID":49095,"ELEMENT_SET_NO":999,"REV_AT_EPOCH":22049,"BSTAR":-0.002292,"MEAN_MOTION_DOT":-8.77e-6,"MEAN_MOTION_DDOT":0},{"OBJECT_NAME":"ONEWEB-0310","OBJECT_ID":"2021-075X","EPOCH":"2026-03-09T19:44:10.768704","MEAN_MOTION":13.12444641,"ECCENTRICITY":0.0001823,"INCLINATION":87.8998,"RA_OF_ASC_NODE":10.4078,"ARG_OF_PERICENTER":80.2008,"MEAN_ANOMALY":279.9326,"EPHEMERIS_TYPE":0,"CLASSIFICATION_TYPE":"U","NORAD_CAT_ID":49096,"ELEMENT_SET_NO":999,"REV_AT_EPOCH":22215,"BSTAR":0.0014706,"MEAN_MOTION_DOT":5.42e-6,"MEAN_MOTION_DDOT":0}]
